NORAD_CAT_ID,OBJECT_NAME,OBJECT_TYPE,EPOCH,MEAN_MOTION,ECCENTRICITY,INCLINATION,RA_OF_ASC_NODE,ARG_OF_PERICENTER,MEAN_ANOMALY,BSTAR,MEAN_MOTION_DOT,MEAN_MOTION_DDOT,TLE_LINE0,TLE_LINE1,TLE_LINE2,SEMIMAJOR_AXIS,PERIOD,APOGEE,PERIGEE,DECAYED
52296.0,STARLINK-3766,PAYLOAD,2023-04-08 12:50:01,15.0883446,9.71e-05,53.2173,205.2779,96.4012,263.709,-2.8758e-05,-7.45e-06,0.0,0 STARLINK-3766,1 52296U 22041AM  23098.53474389 -.00000745  00000-0 -28758-4 0  9990,2 52296  53.2173 205.2779 0000971  96.4012 263.7090 15.08834460 53552,6917.897,95.438,540.434,539.091,0.0
52296.0,STARLINK-3766,PAYLOAD,2023-04-09 06:19:15,15.08840941,0.0001038,53.2172,202.0066,86.1746,273.9365,0.00016085,2.273e-05,0.0,0 STARLINK-3766,1 52296U 22041AM  23099.26337698  .00002273  00000-0  16085-3 0  9997,2 52296  53.2172 202.0066 0001038  86.1746 273.9365 15.08840941 54886,6917.878,95.437,540.461,539.024,0.0
52296.0,STARLINK-3766,PAYLOAD,2023-04-09 11:05:25,15.08844787,0.0001083,53.2168,201.1149,85.9975,274.1141,0.00022594,3.31e-05,0.0,0 STARLINK-3766,1 52296U 22041AM  23099.46209580  .00003310  00000-0  22594-3 0  9992,2 52296  53.2168 201.1149 0001083  85.9975 274.1141 15.08844787 53699,6917.866,95.437,540.48,538.982,0.0
52296.0,STARLINK-3766,PAYLOAD,2023-04-09 14:16:11,15.08851153,0.0001637,53.2163,200.5196,101.8639,258.2536,0.00027395,4.076e-05,0.0,0 STARLINK-3766,1 52296U 22041AM  23099.59457328  .00004076  00000-0  27395-3 0  9995,2 52296  53.2163 200.5196 0001637 101.8639 258.2536 15.08851153 53718,6917.846,95.437,540.844,538.579,0.0
52296.0,STARLINK-3766,PAYLOAD,2023-04-10 06:10:02,15.08842673,0.000118,53.2153,197.546,83.192,276.9207,0.00018182,2.607e-05,0.0,0 STARLINK-3766,1 52296U 22041AM  23100.25697677  .00002607  00000-0  18182-3 0  9996,2 52296  53.2153 197.5460 0001180  83.1920 276.9207 15.08842673 53814,6917.872,95.437,540.554,538.921,0.0
52296.0,STARLINK-3766,PAYLOAD,2023-04-10 23:39:17,15.08845799,0.0001046,53.2132,194.2732,83.4015,276.7096,0.00011237,1.501e-05,0.0,0 STARLINK-3766,1 52296U 22041AM  23100.98561401  .00001501  00000-0  11237-3 0  9997,2 52296  53.2132 194.2732 0001046  83.4015 276.7096 15.08845799 55140,6917.863,95.437,540.451,539.004,0.0
52296.0,STARLINK-3766,PAYLOAD,2023-04-11 12:22:22,15.08832178,0.0001387,53.2149,191.8949,81.7348,278.3801,-0.00015828,-2.806e-05,0.0,0 STARLINK-3766,1 52296U 22041AM  23101.51554287 -.00002806  00000-0 -15828-3 0  9992,2 52296  53.2149 191.8949 0001387  81.7348 278.3801 15.08832178 54002,6917.904,95.438,540.729,538.81,0.0
52296.0,STARLINK-3766,PAYLOAD,2023-04-12 12:13:09,15.08855384,0.0001524,53.2142,187.4349,80.2298,279.8866,0.00092269,0.00014433,0.0,0 STARLINK-3766,1 52296U 22041AM  23102.50914028  .00014433  00000-0  92269-3 0  9996,2 52296  53.2142 187.4349 0001524  80.2298 279.8866 15.08855384 54158,6917.833,95.437,540.753,538.644,0.0
52296.0,STARLINK-3766,PAYLOAD,2023-04-12 16:59:18,15.08871162,0.0001506,53.214,186.5419,82.8857,277.2307,0.0011418,0.00017946,0.0,0 STARLINK-3766,1 52296U 22041AM  23102.70785502  .00017946  00000-0  11418-2 0  9999,2 52296  53.2140 186.5419 0001506  82.8857 277.2307 15.08871162 55406,6917.785,95.436,540.692,538.608,0.0
52296.0,STARLINK-3766,PAYLOAD,2023-04-13 10:28:33,15.08856107,0.0001326,53.2141,183.2715,86.0458,274.0685,0.00046713,7.157e-05,0.0,0 STARLINK-3766,1 52296U 22041AM  23103.43649372  .00007157  00000-0  46713-3 0  9994,2 52296  53.2141 183.2715 0001326  86.0458 274.0685 15.08856107 54295,6917.831,95.437,540.613,538.779,0.0
52296.0,STARLINK-3766,PAYLOAD,2023-04-14 11:54:43,15.08840519,0.0001391,53.2146,178.5115,105.6667,254.4479,0.00063159,9.778e-05,0.0,0 STARLINK-3766,1 52296U 22041AM  23104.49633750  .00009778  00000-0  63159-3 0  9998,2 52296  53.2146 178.5115 0001391 105.6667 254.4479 15.08840519 55679,6917.879,95.438,540.706,538.782,0.0
52296.0,STARLINK-3766,PAYLOAD,2023-04-15 10:10:07,15.08845637,0.0001349,53.2148,174.35,104.3509,255.7633,0.00024619,3.633e-05,0.0,0 STARLINK-3766,1 52296U 22041AM  23105.42369609  .00003633  00000-0  24619-3 0  9993,2 52296  53.2148 174.3500 0001349 104.3509 255.7633 15.08845637 54599,6917.863,95.437,540.661,538.795,0.0
52296.0,STARLINK-3766,PAYLOAD,2023-04-16 11:36:17,15.08840022,0.0001215,53.2143,169.5924,99.9317,260.1813,0.00012403,1.687e-05,0.0,0 STARLINK-3766,1 52296U 22041AM  23106.48353923  .00001687  00000-0  12403-3 0  9997,2 52296  53.2143 169.5924 0001215  99.9317 260.1813 15.08840022 55974,6917.88,95.438,540.586,538.905,0.0
52296.0,STARLINK-3766,PAYLOAD,2023-04-16 21:08:36,15.08840223,0.0001036,53.2137,167.8084,92.6226,267.4884,3.4892e-05,2.68e-06,0.0,0 STARLINK-3766,1 52296U 22041AM  23106.88097910  .00000268  00000-0  34892-4 0  9993,2 52296  53.2137 167.8084 0001036  92.6226 267.4884 15.08840223 54818,6917.88,95.438,540.461,539.028,0.0
52296.0,STARLINK-3766,PAYLOAD,2023-04-17 05:05:32,15.0883361,0.0001394,53.2157,166.322,91.922,268.1931,-1.7069e-05,-5.6e-06,0.0,0 STARLINK-3766,1 52296U 22041AM  23107.21218491 -.00000560  00000-0 -17069-4 0  9994,2 52296  53.2157 166.3220 0001394  91.9220 268.1931 15.08833610 56083,6917.9,95.438,540.729,538.801,0.0
52296.0,STARLINK-3766,PAYLOAD,2023-04-17 11:27:05,15.08839016,0.0001592,53.2166,165.1322,100.2284,259.8888,7.7756e-05,9.5e-06,0.0,0 STARLINK-3766,1 52296U 22041AM  23107.47714497  .00000950  00000-0  77756-4 0  9999,2 52296  53.2166 165.1322 0001592 100.2284 259.8888 15.08839016 54900,6917.883,95.438,540.85,538.647,0.0
52296.0,STARLINK-3766,PAYLOAD,2023-04-17 20:59:24,15.08833056,0.0001316,53.2164,163.348,79.2431,280.8709,5.0473e-05,5.15e-06,0.0,0 STARLINK-3766,1 52296U 22041AM  23107.87459115  .00000515  00000-0  50473-4 0  9990,2 52296  53.2164 163.3480 0001316  79.2431 280.8709 15.08833056 54966,6917.902,95.438,540.677,538.856,0.0
52296.0,STARLINK-3766,PAYLOAD,2023-04-18 03:20:59,15.08810977,0.0001477,53.2171,162.1593,85.8283,274.2878,-0.00013563,-2.444e-05,0.0,0 STARLINK-3766,1 52296U 22041AM  23108.13957288 -.00002444  00000-0 -13563-3 0  9997,2 52296  53.2171 162.1593 0001477  85.8283 274.2878 15.08810977 56224,6917.969,95.439,540.856,538.812,0.0
52296.0,STARLINK-3766,PAYLOAD,2023-04-18 09:42:32,15.08810707,0.0001472,53.2168,160.9697,85.4375,274.6785,-0.00013078,-2.367e-05,0.0,0 STARLINK-3766,1 52296U 22041AM  23108.40453731 -.00002367  00000-0 -13078-3 0  9996,2 52296  53.2168 160.9697 0001472  85.4375 274.6785 15.08810707 55045,6917.97,95.439,540.853,538.817,0.0
52296.0,STARLINK-3766,PAYLOAD,2023-04-19 07:57:53,15.08848642,0.0001427,53.2163,156.8061,79.9643,280.151,0.00024671,3.642e-05,0.0,0 STARLINK-3766,1 52296U 22041AM  23109.33187086  .00003642  00000-0  24671-3 0  9992,2 52296  53.2163 156.8061 0001427  79.9643 280.1510 15.08848642 56403,6917.854,95.437,540.706,538.732,0.0
52296.0,STARLINK-3766,PAYLOAD,2023-04-19 09:33:16,15.0885068,0.0001382,53.217,156.5094,70.881,289.2331,0.00022558,3.305e-05,0.0,0 STARLINK-3766,1 52296U 22041AM  23109.39811008  .00003305  00000-0  22558-3 0  9994,2 52296  53.2170 156.5094 0001382  70.8810 289.2331 15.08850680 55191,6917.848,95.437,540.669,538.757,0.0
52296.0,STARLINK-3766,PAYLOAD,2023-04-19 20:40:57,15.08861337,0.0001487,53.216,154.4316,51.982,308.1306,0.00021314,3.108e-05,0.0,0 STARLINK-3766,1 52296U 22041AM  23109.86178230  .00003108  00000-0  21314-3 0  9999,2 52296  53.2160 154.4316 0001487  51.9820 308.1306 15.08861337 55263,6917.815,95.436,540.709,538.651,0.0
52296.0,STARLINK-3766,PAYLOAD,2023-04-20 12:34:50,15.08825431,0.000124,53.2143,151.4521,62.1056,298.0061,0.00052184,8.024e-05,0.0,0 STARLINK-3766,1 52296U 22041AM  23110.52420115  .00008024  00000-0  52184-3 0  9997,2 52296  53.2143 151.4521 0001240  62.1056 298.0061 15.08825431 55362,6917.925,95.438,540.648,538.932,0.0
52296.0,STARLINK-3766,PAYLOAD,2023-04-21 02:53:18,15.08845883,0.0001317,53.2149,148.7714,120.0645,240.0477,-8.7573e-06,-4.27e-06,0.0,0 STARLINK-3766,1 52296U 22041AM  23111.12035533 -.00000427  00000-0 -87573-5 0  9993,2 52296  53.2149 148.7714 0001317 120.0645 240.0477 15.08845883 56670,6917.862,95.437,540.638,538.816,0.0
52296.0,STARLINK-3766,PAYLOAD,2023-04-21 18:47:09,15.08846243,0.0001286,53.215,145.8012,102.2042,257.9094,-2.1681e-05,-6.33e-06,0.0,0 STARLINK-3766,1 52296U 22041AM  23111.78275302 -.00000633  00000-0 -21681-4 0  9991,2 52296  53.2150 145.8012 0001286 102.2042 257.9094 15.08846243 55558,6917.861,95.437,540.616,538.837,0.0
52296.0,STARLINK-3766,PAYLOAD,2023-04-22 12:16:23,15.08849374,0.0001219,53.215,142.5302,100.7759,259.337,6.2754e-05,7.11e-06,0.0,0 STARLINK-3766,1 52296U 22041AM  23112.51138594  .00000711  00000-0  62754-4 0  9995,2 52296  53.2150 142.5302 0001219 100.7759 259.3370 15.08849374 56886,6917.852,95.437,540.56,538.873,0.0
52296.0,STARLINK-3766,PAYLOAD,2023-04-22 18:37:56,15.08845679,0.0001185,53.2137,141.3399,98.8482,261.2644,1.0796e-05,-1.16e-06,0.0,0 STARLINK-3766,1 52296U 22041AM  23112.77634819 -.00000116  00000-0  10796-4 0  9993,2 52296  53.2137 141.3399 0001185  98.8482 261.2644 15.08845679 55706,6917.863,95.437,540.548,538.908,0.0
52296.0,STARLINK-3766,PAYLOAD,2023-04-23 12:07:11,15.0883369,0.0001164,53.215,138.0692,86.3271,273.7854,5.7006e-05,6.19e-06,0.0,0 STARLINK-3766,1 52296U 22041AM  23113.50499765  .00000619  00000-0  57006-4 0  9996,2 52296  53.2150 138.0692 0001164  86.3271 273.7854 15.08833690 55818,6917.9,95.438,540.57,538.959,0.0
52296.0,STARLINK-3766,PAYLOAD,2023-04-24 02:25:39,15.08845661,0.0001239,53.2147,135.3932,95.1154,264.998,8.1595e-05,1.011e-05,0.0,0 STARLINK-3766,1 52296U 22041AM  23114.10114888  .00001011  00000-0  81595-4 0  9990,2 52296  53.2147 135.3932 0001239  95.1154 264.9980 15.08845661 55905,6917.863,95.437,540.585,538.871,0.0
52296.0,STARLINK-3766,PAYLOAD,2023-04-25 13:24:09,15.08831939,9.23e-05,53.2154,128.8507,83.2614,276.8484,-3.4028e-05,-8.29e-06,0.0,0 STARLINK-3766,1 52296U 22041AM  23115.55843926 -.00000829  00000-0 -34028-4 0  9999,2 52296  53.2154 128.8507 0000923  83.2614 276.8484 15.08831939 56125,6917.905,95.438,540.409,539.132,0.0
